[
    {
        "CCSDS_OMM_VERS": "3.0",
        "COMMENT": "GENERATED VIA SPACE-TRACK.ORG API",
        "CREATION_DATE": "2025-02-28T19:05:01",
        "ORIGINATOR": "18 SPCS",
        "OBJECT_NAME": "GALILEO 25 (2C1)",
        "OBJECT_ID": "2018-060A",
        "CENTER_NAME": "EARTH",
        "REF_FRAME": "TEME",
        "TIME_SYSTEM": "UTC",
        "MEAN_ELEMENT_THEORY": "SGP4",
        "EPOCH": "2025-02-28T02:30:06.318720",
        "MEAN_MOTION": "1.70475287",
        "ECCENTRICITY": "0.00056670",
        "INCLINATION": "57.2867",
        "RA_OF_ASC_NODE": "354.5742",
        "ARG_OF_PERICENTER": "302.2626",
        "MEAN_ANOMALY": "57.6852",
        "EPHEMERIS_TYPE": "0",
        "CLASSIFICATION_TYPE": "U",
        "NORAD_CAT_ID": "43564",
        "ELEMENT_SET_NO": "999",
        "REV_AT_EPOCH": "4108",
        "BSTAR": "0.00000000000000",
        "MEAN_MOTION_DOT": "-0.00000082",
        "MEAN_MOTION_DDOT": "0.0000000000000",
        "SEMIMAJOR_AXIS": "29600.171",
        "PERIOD": "844.697",
        "APOAPSIS": "23238.810",
        "PERIAPSIS": "23205.262",
        "OBJECT_TYPE": "PAYLOAD",
        "RCS_SIZE": "LARGE",
        "COUNTRY_CODE": "ESA",
        "LAUNCH_DATE": "2018-07-25",
        "SITE": "FRGUI",
        "DECAY_DATE": null,
        "FILE": "4655208",
        "GP_ID": "281921119",
        "TLE_LINE0": "0 GALILEO 25 (2C1)",
        "TLE_LINE1": "1 43564U 18060A   25059.10423980 -.00000082  00000-0  00000-0 0  9996",
        "TLE_LINE2": "2 43564  57.2867 354.5742 0005667 302.2626  57.6852  1.70475287 41081"
    }
]